ELYSIUM STAR 2 & LFF    
1 43760U 18099C   24212.63970634  .00062838  00000+0  21368-2 0  9994
2 43760  97.5139 280.6052 0006859 129.3574 230.8275 15.30193248309878
